GLOBALSTAR M024         
1 25883U 99043A   25183.89050931 -.00000120  00000+0 -19528-2 0  9996
2 25883  52.0053 345.1907 0002136 118.0069  52.4603 11.10167658116609
GLOBALSTAR M027         
1 25884U 99043B   25184.06419342 -.00000091  00000+0 -10452-2 0  9996
2 25884  52.0229  63.2300 0021998  18.3144 341.8437 11.04371692143038
GLOBALSTAR M054         
1 25885U 99043C   25184.18804914 -.00000052  00000+0  48904-3 0  9993
2 25885  52.0100 187.5697 0005748 205.9120 234.3315 11.39224692121200
GLOBALSTAR M053         
1 25886U 99043D   25183.61190067 -.00000054  00000+0  42761-3 0  9995
2 25886  51.9964 136.8983 0002954 100.0397  70.6571 11.27665810121189
GLOBALSTAR M058         
1 25907U 99049A   25183.97399757 -.00000090  00000+0 -76548-4 0  9993
2 25907  51.9951  67.0199 0001842 317.6999  42.3693 11.93199948154636
GLOBALSTAR M050         
1 25908U 99049B   25184.01457057 -.00000093  00000+0 -53546-4 0  9994
2 25908  52.0000  73.4047 0009842  62.2905 310.9474 12.07454526154830
GLOBALSTAR M033         
1 25909U 99049C   25184.07665305 -.00000057  00000+0  32972-3 0  9996
2 25909  51.9928 303.9695 0012917 295.4690  64.4821 12.20294321170404
GLOBALSTAR M055         
1 25910U 99049D   25184.02916754 -.00000068  00000+0  22064-3 0  9993
2 25910  52.0038 314.0798 0007565 160.6781 199.4359 12.29429336170459
